#cP2025  4 21 18  0  0.00000000     192 ORBIT IGb20 HLM  IGS
## 2363 151200.00000000   900.00000000 60786 0.7500000000000
+   51   G01G02G03G04G05G06G07G08G09G10G11G12G13G14G15G16G17
+        G18G19G20G22G23G24G25G26G27G28G29G30G31G32R02R03R04
+        R05R07R08R09R11R12R14R15R16R17R18R19R20R21R22R24R26
+          0  0  0  0  0  0  0  0  0  0  0  0  0  0  0  0  0
+          0  0  0  0  0  0  0  0  0  0  0  0  0  0  0  0  0
++         4  3  3  3  3  3  3  3  3  3  4  4  3  4  3  3  4
++         4  4  4  3  4  3  3  5  3  4  4  3  4  3  5  4  4
++         4  5  4  4  4  5  4  5  5  5  5  5  6  4  4  5  5
++         0  0  0  0  0  0  0  0  0  0  0  0  0  0  0  0  0
++         0  0  0  0  0  0  0  0  0  0  0  0  0  0  0  0  0
%c M  cc GPS ccc cccc cccc cccc cccc ccccc ccccc ccccc ccccc
%c cc cc ccc ccc cccc cccc cccc cccc ccccc ccccc ccccc ccccc
%f  1.2500000  1.025000000  0.00000000000  0.000000000000000
%f  0.0000000  0.000000000  0.00000000000  0.000000000000000
%i    0    0    0    0      0      0      0      0         0
%i    0    0    0    0      0      0      0      0         0
/* ULTRA ORBIT COMBINATION 23632_18 (60787.750) FROM:       
/* cou emu esu gfu gru jgu siu usu whu coR emR esR gfR jgR w
/* REFERENCED TO emu CLOCK AND TO WEIGHTED MEAN POLE:       
/* PCV:IGS20      OL/AL:FES2014b NONE     Y  ORB:CMB CLK:CMB
*  2025  4 23  7 30  0.00000000
PG01 -20870.979276 -15356.782583  -5894.786325    233.305566 12 11 14 265  P   P
PG02 -14945.748869 -15768.483395 -15119.329506   -187.518164 13  9  8 258  P   P
PG03 -11261.098232 -19933.879517  13391.357875    687.489251 12 12 12 261  P   P
PG04 -14532.248420  -7456.331478  20999.146351 999999.999999 10 14  5   1  P   P
PG05   6608.982778  25528.992129  -3039.483963   -207.991284 12 12 13 273  P   P
PG06 -12890.474050   9583.691326  21243.481107   -320.147899 13 12 10 252  P   P
PG07 -25247.773144  -5538.409640  -6468.422337    -22.757140  6 10 14 247  P   P
PG08  -6495.025608 -14540.526059 -21354.507152    511.779856 14 11  9 224  P   P
PG09 -21171.810779   2943.663942  15717.650575    639.106895 10 15 11 256  P   P
PG10  10932.554017 -14325.837194 -19153.632092   -399.816269  8 13 12 221  P   P
PG11  -1225.334820  15776.998456  21377.648228   -724.467806 13 11  8 186  P   P
PG12  10283.824201  20620.059948  12948.688642   -581.303861 13 14 14 256  P   P
PG13  -5066.427146  17771.681781 -19218.307756    700.638497 14 10 12 179  P   P
PG14 -13312.131026  11181.493974 -19953.265895    634.853399  8 12 10 219  P   P
PG15   8598.396053  13829.392711 -21494.015568    288.445865 13 12  9 221  P   P
PG16    663.356832 -26154.458357   2499.730579     -0.678886 11 10 14 204  P   P
PG17 -23112.116080  12804.651540  -3284.761067    315.003679  9 13 14 243  P   P
PG18  24693.588916   4035.690941  -9227.371108   -633.853067  7 11 14 239  P   P
PG19 -19538.001029  16617.991042   5747.324503    621.562450 12 13 14 244  P   P
PG20     37.247704  24463.867114  10566.904942    364.881170 14 13 14 164  P   P
PG22 -10341.350947  18558.169061 -15756.376239   -102.615761 10 12 11 241  P   P
PG23  14965.441826   1765.903019 -21846.339707    464.503847 10 15  7 190  P   P
PG24  18782.081563  15039.199577 -12147.580476   -416.800578 12 12 14 219  P   P
PG25  15351.497692   9460.418586  19220.025395    489.651050  8 13 11 218  P   P
PG26   4543.117837 -22674.779634  12514.514850   -201.042798 16 16 16 249  P   P
PG27   6353.607913 -19799.768802 -16596.930819    -27.241496 13 11 13 227  P   P
PG28  15586.012641  -8714.406040  19660.928809   -601.320097 13 14 12 224  P   P
PG29  21057.729496   -329.250849  16214.048434   -514.769555 13 13 14 216  P   P
PG30 -20674.230241   4300.167270 -16095.424566   -162.889496 10 13 10 224  P   P
PG31   6786.192047 -13653.201079  21502.565987   -209.399927 14 14 11 218  P   P
PG32  20654.392554 -16523.373704    498.010959   -470.402285  9 13 13 216  P   P
PR02   1421.393176  15005.552483 -20546.046113 999999.999999 16 16 15      P   P
PR03  13020.357085  -1370.630180 -21828.038951 999999.999999 13 15 12      P   P
PR04  16657.996784 -15852.484981 -10994.753532 999999.999999  9 14 16      P   P
PR05  11611.957813 -21978.466847   5703.129820 999999.999999 12 11 15      P   P
PR07 -13144.071293   1515.780046  21863.687404 999999.999999 16 20 15      P   P
PR08 -16566.436016  16148.895379  10845.189225 999999.999999 12 16 16      P   P
PR09 -12605.170250 -22226.223445   -396.850997 999999.999999 14 11 14      P   P
PR11 -10709.074922   3006.451959 -22945.496696 999999.999999 13 17 11      P   P
PR12   1418.900663  19664.910349 -16166.016400 999999.999999 16 17 18      P   P
PR14  15391.573828  12266.844950  16225.257423 999999.999999 13 14 15      P   P
PR15   9922.818770  -4894.370273  23002.749434 999999.999999 16 17 12      P   P
PR16  -1482.481323 -19583.611469  16310.481167 999999.999999 18 18 19      P   P
PR17  24837.602164   3617.099633   4662.000009 999999.999999 12 14 18      P   P
PR18  22454.754560  -3610.462428 -11488.317794 999999.999999 15 14 18      P   P
PR19  11136.805912  -8470.203250 -21333.552730 999999.999999 17 16 17      P   P
PR20 -12214.784484 -10303.449064 -19894.317699 999999.999999 20 16 16      P   P
PR21 -24253.029455  -4594.825916  -6386.533199 999999.999999 13 13 16      P   P
PR22 -21824.004455   4034.150761  12608.276887 999999.999999 12 12 15      P   P
PR24  13123.940875   9985.543848  19476.720202 999999.999999 17 12 15      P   P
PR26 -16505.589655  14632.594930  12812.818405 999999.999999 16 11 17      P   P
*  2025  4 23  7 45  0.00000000
PG01 -20019.072919 -15222.116718  -8583.730061    233.319418 13 11 14 265  P   P
PG02 -13079.342520 -15392.931519 -17019.975236   -187.509699 14  9  7 258  P   P
PG03 -11335.895384 -21349.797883  10967.728710    687.491580 12 12 12 261  P   P
PG04 -12623.491553  -8959.636188  21623.559508 999999.999999 10 14  5   1  P   P
PG05   6432.309367  25733.406315   -156.915916   -207.992190 12 11 13 273  P   P
PG06 -15047.733674   8654.168836  20206.631814   -320.166531 12 12 11 252  P   P
PG07 -25758.644805  -6000.967053  -3738.337314    -22.759324  7  9 15 248  P   P
PG08  -4653.372874 -16060.135336 -20691.425950    511.783535 14 11 10 224  P   P
PG09 -19825.055048   1570.900215  17548.333095    639.116823 11 15 10 256  P   P
PG10  11384.196010 -12053.548315 -20426.874842   -399.827878  7 14 12 217  P   P
PG11  -3495.744172  14829.068563  21796.775378   -724.462985 14 11  9 183  P   P
PG12  10191.871576  22018.495265  10552.904523   -581.305416 13 13 14 256  P   P
PG13  -6907.890563  18726.141906 -17632.296222    700.638726 14  9 12 180  P   P
PG14 -13747.807392   8864.095580 -20824.150283    634.858581  8 12 10 219  P   P
PG15   7006.003787  15526.481401 -20878.353403    288.449609 12 12  9 221  P   P
PG16    990.229231 -25683.022254   5332.627697     -0.671012 11 11 14 206  P   P
PG17 -22779.316864  12280.508395  -6067.020788    314.987137  9 13 14 241  P   P
PG18  25458.098914   4545.184732  -6551.294743   -633.849246  5 11 14 238  P   P
PG19 -20124.547925  16666.464685   2918.255096    621.565845 11 13 15 244  P   P
PG20   -608.856876  23281.472722  12958.993344    364.880967 15 13 14 171  P   P
PG22 -10638.024654  16614.259275 -17554.206792   -102.616182 11 12 10 241  P   P
PG23  15389.502625   4194.858894 -21233.370608    464.509947 10 15  9 192  P   P
PG24  17334.153018  14885.547930 -14340.992912   -416.794285 12 12 14 218  P   P
PG25  15609.030432  11632.738971  17818.060890    489.650054  9 13 12 218  P   P
PG26   5224.421907 -21191.586186  14667.934484   -201.061106 16 16 15 251  P   P
PG27   7825.359644 -20765.222088 -14592.294597    -27.240870 13 10 13 227  P   P
PG28  17596.264234  -7887.324143  18265.445977   -601.325423 13 13 12 224  P   P
PG29  19532.597622    909.656461  17986.013119   -514.765809 14 13 13 212  P   P
PG30 -22239.720195   3479.907640 -14130.820673   -162.881004 10 12 11 224  P   P
PG31   9098.633261 -12701.875502  21264.004180   -209.398940 14 14 11 220  P   P
PG32  20718.444668 -16236.536273  -2373.827674   -470.393607  9 13 13 215  P   P
PR02    213.833368  17131.289287 -18872.644629 999999.999999 16 15 16      P   P
PR03  11557.434457    970.331846 -22659.776160 999999.999999 13 16 11      P   P
PR04  15716.765891 -14632.941341 -13724.460077 999999.999999  9 15 15      P   P
PR05  11724.961456 -22504.741633   2522.922746 999999.999999 12 12 15      P   P
PR07 -11683.478586   -802.405313  22712.327005 999999.999999 16 20 13      P   P
PR08 -15663.793695  14946.612282  13579.158257 999999.999999 13 16 16      P   P
PR09 -12615.159692 -22052.365218   2778.304086 999999.999999 14 12 13      P   P
PR11 -12106.453843    576.916731 -22436.726004 999999.999999 13 16 12      P   P
PR12    458.655637  17762.003270 -18281.915469 999999.999999 16 17 17      P   P
PR14  16386.118811  13830.577789  13810.498099 999999.999999 13 14 16      P   P
PR15  11303.178068  -2437.829617  22754.995192 999999.999999 16 17 13      P   P
PR16   -527.306633 -17665.823159  18420.541297 999999.999999 18 19 18      P   P
PR17  24075.913991   3419.138087   7769.003711 999999.999999 14 14 18      P   P
PR18  23702.700707  -3735.676005  -8569.336950 999999.999999 13 14 18      P   P
PR19  13679.934887  -8385.009173 -19835.153076 999999.999999 17 16 17      P   P
PR20  -9679.513772 -10014.766089 -21377.568498 999999.999999 20 15 15      P   P
PR21 -23283.572356  -4378.865822  -9427.212367 999999.999999 14 13 16      P   P
PR22 -23208.140992   4078.181305   9807.271574 999999.999999 11 12 15      P   P
PR24  10631.437685   9861.379716  21000.021265 999999.999999 18 13 14      P   P
PR26 -15498.418984  13211.772012  15367.071603 999999.999999 16  9 16      P   P
EOF
